[{"OBJECT_NAME":"ONEWEB-0522","OBJECT_ID":"2022-138AD","EPOCH":"2026-04-21T06:43:01.708896","MEAN_MOTION":13.19724788,"ECCENTRICITY":0.0001952,"INCLINATION":87.9171,"RA_OF_ASC_NODE":316.301,"ARG_OF_PERICENTER":86.1792,"MEAN_ANOMALY":273.9564,"EPHEMERIS_TYPE":0,"CLASSIFICATION_TYPE":"U","NORAD_CAT_ID":54140,"ELEMENT_SET_NO":999,"REV_AT_EPOCH":16930,"BSTAR":0.00010022,"MEAN_MOTION_DOT":5.3e-07,"MEAN_MOTION_DDOT":0.0},{"OBJECT_NAME":"ONEWEB-0523","OBJECT_ID":"2022-138AE","EPOCH":"2026-04-21T05:06:32.717088","MEAN_MOTION":13.20769415,"ECCENTRICITY":0.0001122,"INCLINATION":87.9139,"RA_OF_ASC_NODE":285.8113,"ARG_OF_PERICENTER":114.2437,"MEAN_ANOMALY":245.8813,"EPHEMERIS_TYPE":0,"CLASSIFICATION_TYPE":"U","NORAD_CAT_ID":54141,"ELEMENT_SET_NO":999,"REV_AT_EPOCH":17178,"BSTAR":-2.3874000000000002e-05,"MEAN_MOTION_DOT":3e-08,"MEAN_MOTION_DDOT":0.0},{"OBJECT_NAME":"ONEWEB-0524","OBJECT_ID":"2022-138AF","EPOCH":"2026-04-21T04:50:37.563360","MEAN_MOTION":13.20774635,"ECCENTRICITY":0.000114,"INCLINATION":87.9138,"RA_OF_ASC_NODE":285.8106,"ARG_OF_PERICENTER":67.9068,"MEAN_ANOMALY":292.2186,"EPHEMERIS_TYPE":0,"CLASSIFICATION_TYPE":"U","NORAD_CAT_ID":54142,"ELEMENT_SET_NO":999,"REV_AT_EPOCH":17178,"BSTAR":9.278e-05,"MEAN_MOTION_DOT":5.1e-07,"MEAN_MOTION_DDOT":0.0},{"OBJECT_NAME":"ONEWEB-0525","OBJECT_ID":"2022-138AG","EPOCH":"2026-04-21T07:10:19.244640","MEAN_MOTION":13.19723212,"ECCENTRICITY":0.0002063,"INCLINATION":87.9159,"RA_OF_ASC_NODE":316.3075,"ARG_OF_PERICENTER":83.1387,"MEAN_ANOMALY":276.998,"EPHEMERIS_TYPE":0,"CLASSIFICATION_TYPE":"U","NORAD_CAT_ID":54143,"ELEMENT_SET_NO":999,"REV_AT_EPOCH":16932,"BSTAR":-2.2237e-05,"MEAN_MOTION_DOT":4e-08,"MEAN_MOTION_DDOT":0.0},{"OBJECT_NAME":"ONEWEB-0526","OBJECT_ID":"2022-138AH","EPOCH":"2026-04-21T07:58:05.681280","MEAN_MOTION":13.1972443,"ECCENTRICITY":0.0001811,"INCLINATION":87.9168,"RA_OF_ASC_NODE":316.3001,"ARG_OF_PERICENTER":84.4323,"MEAN_ANOMALY":275.7016,"EPHEMERIS_TYPE":0,"CLASSIFICATION_TYPE":"U","NORAD_CAT_ID":54144,"ELEMENT_SET_NO":999,"REV_AT_EPOCH":16930,"BSTAR":-4.8283e-05,"MEAN_MOTION_DOT":-6e-08,"MEAN_MOTION_DDOT":0.0},{"OBJECT_NAME":"ONEWEB-0529","OBJECT_ID":"2022-138AJ","EPOCH":"2026-04-21T06:13:27.597216","MEAN_MOTION":13.19724374,"ECCENTRICITY":0.0001975,"INCLINATION":87.9161,"RA_OF_ASC_NODE":316.328,"ARG_OF_PERICENTER":82.3559,"MEAN_ANOMALY":277.7798,"EPHEMERIS_TYPE":0,"CLASSIFICATION_TYPE":"U","NORAD_CAT_ID":54145,"ELEMENT_SET_NO":999,"REV_AT_EPOCH":16931,"BSTAR":-9.9474e-05,"MEAN_MOTION_DOT":-2.7e-07,"MEAN_MOTION_DDOT":0.0},{"OBJECT_NAME":"ONEWEB-0531","OBJECT_ID":"2022-138AK","EPOCH":"2026-04-21T09:57:26.775936","MEAN_MOTION":13.20772805,"ECCENTRICITY":8.65e-05,"INCLINATION":87.9129,"RA_OF_ASC_NODE":285.7663,"ARG_OF_PERICENTER":102.6648,"MEAN_ANOMALY":257.4582,"EPHEMERIS_TYPE":0,"CLASSIFICATION_TYPE":"U","NORAD_CAT_ID":54146,"ELEMENT_SET_NO":999,"REV_AT_EPOCH":17181,"BSTAR":1.6354e-05,"MEAN_MOTION_DOT":2e-07,"MEAN_MOTION_DDOT":0.0},{"OBJECT_NAME":"ONEWEB-0535","OBJECT_ID":"2022-138AL","EPOCH":"2026-04-21T07:01:13.334016","MEAN_MOTION":13.19723144,"ECCENTRICITY":0.0001565,"INCLINATION":87.9169,"RA_OF_ASC_NODE":316.3014,"ARG_OF_PERICENTER":95.6139,"MEAN_ANOMALY":264.5173,"EPHEMERIS_TYPE":0,"CLASSIFICATION_TYPE":"U","NORAD_CAT_ID":54147,"ELEMENT_SET_NO":999,"REV_AT_EPOCH":16933,"BSTAR":-3.9313e-05,"MEAN_MOTION_DOT":-3e-08,"MEAN_MOTION_DDOT":0.0},{"OBJECT_NAME":"ONEWEB-0536","OBJECT_ID":"2022-138AM","EPOCH":"2026-04-21T09:39:16.151328","MEAN_MOTION":13.20772792,"ECCENTRICITY":7.72e-05,"INCLINATION":87.9124,"RA_OF_ASC_NODE":285.7981,"ARG_OF_PERICENTER":93.4009,"MEAN_ANOMALY":266.7212,"EPHEMERIS_TYPE":0,"CLASSIFICATION_TYPE":"U","NORAD_CAT_ID":54148,"ELEMENT_SET_NO":999,"REV_AT_EPOCH":17180,"BSTAR":-3.0437e-05,"MEAN_MOTION_DOT":1e-08,"MEAN_MOTION_DDOT":0.0},{"OBJECT_NAME":"ONEWEB-0527","OBJECT_ID":"2022-166A","EPOCH":"2026-04-21T09:33:45.159840","MEAN_MOTION":13.21824126,"ECCENTRICITY":0.0001694,"INCLINATION":87.9206,"RA_OF_ASC_NODE":255.3039,"ARG_OF_PERICENTER":99.2578,"MEAN_ANOMALY":260.8748,"EPHEMERIS_TYPE":0,"CLASSIFICATION_TYPE":"U","NORAD_CAT_ID":54642,"ELEMENT_SET_NO":999,"REV_AT_EPOCH":16403,"BSTAR":0.00049451,"MEAN_MOTION_DOT":2.17e-06,"MEAN_MOTION_DDOT":0.0},{"OBJECT_NAME":"ONEWEB-0528","OBJECT_ID":"2022-166B","EPOCH":"2026-04-21T09:42:12.239712","MEAN_MOTION":13.21823964,"ECCENTRICITY":0.0001977,"INCLINATION":87.9207,"RA_OF_ASC_NODE":255.3067,"ARG_OF_PERICENTER":92.7061,"MEAN_ANOMALY":267.4299,"EPHEMERIS_TYPE":0,"CLASSIFICATION_TYPE":"U","NORAD_CAT_ID":54643,"ELEMENT_SET_NO":999,"REV_AT_EPOCH":16404,"BSTAR":8.461800000000001e-05,"MEAN_MOTION_DOT":4.8e-07,"MEAN_MOTION_DDOT":0.0},{"OBJECT_NAME":"ONEWEB-0539","OBJECT_ID":"2022-166C","EPOCH":"2026-04-21T08:48:57.363840","MEAN_MOTION":13.2182633,"ECCENTRICITY":0.0002061,"INCLINATION":87.9213,"RA_OF_ASC_NODE":255.2824,"ARG_OF_PERICENTER":103.9541,"MEAN_ANOMALY":256.1822,"EPHEMERIS_TYPE":0,"CLASSIFICATION_TYPE":"U","NORAD_CAT_ID":54644,"ELEMENT_SET_NO":999,"REV_AT_EPOCH":16403,"BSTAR":9.6432e-05,"MEAN_MOTION_DOT":5.3e-07,"MEAN_MOTION_DDOT":0.0},{"OBJECT_NAME":"ONEWEB-0540","OBJECT_ID":"2022-166D","EPOCH":"2026-04-21T08:58:50.416032","MEAN_MOTION":13.21826531,"ECCENTRICITY":0.0001892,"INCLINATION":87.9209,"RA_OF_ASC_NODE":255.3152,"ARG_OF_PERICENTER":102.1133,"MEAN_ANOMALY":258.0213,"EPHEMERIS_TYPE":0,"CLASSIFICATION_TYPE":"U","NORAD_CAT_ID":54645,"ELEMENT_SET_NO":999,"REV_AT_EPOCH":16402,"BSTAR":4.6481000000000004e-05,"MEAN_MOTION_DOT":3.2e-07,"MEAN_MOTION_DDOT":0.0},{"OBJECT_NAME":"ONEWEB-0542","OBJECT_ID":"2022-166E","EPOCH":"2026-04-21T09:03:29.170944","MEAN_MOTION":13.21826725,"ECCENTRICITY":0.0002057,"INCLINATION":87.9217,"RA_OF_ASC_NODE":255.2781,"ARG_OF_PERICENTER":106.5209,"MEAN_ANOMALY":253.6151,"EPHEMERIS_TYPE":0,"CLASSIFICATION_TYPE":"U","NORAD_CAT_ID":54646,"ELEMENT_SET_NO":999,"REV_AT_EPOCH":16403,"BSTAR":3.0588e-05,"MEAN_MOTION_DOT":2.6e-07,"MEAN_MOTION_DDOT":0.0},{"OBJECT_NAME":"ONEWEB-0545","OBJECT_ID":"2022-166F","EPOCH":"2026-04-21T10:01:35.830848","MEAN_MOTION":13.21824147,"ECCENTRICITY":0.0002128,"INCLINATION":87.9207,"RA_OF_ASC_NODE":255.2863,"ARG_OF_PERICENTER":112.4217,"MEAN_ANOMALY":247.7143,"EPHEMERIS_TYPE":0,"CLASSIFICATION_TYPE":"U","NORAD_CAT_ID":54647,"ELEMENT_SET_NO":999,"REV_AT_EPOCH":16400,"BSTAR":0.00018167000000000001,"MEAN_MOTION_DOT":8.8e-07,"MEAN_MOTION_DDOT":0.0},{"OBJECT_NAME":"ONEWEB-0580","OBJECT_ID":"2022-166G","EPOCH":"2026-04-21T09:25:15.055104","MEAN_MOTION":13.21824793,"ECCENTRICITY":0.0001942,"INCLINATION":87.921,"RA_OF_ASC_NODE":255.2913,"ARG_OF_PERICENTER":112.8767,"MEAN_ANOMALY":247.2572,"EPHEMERIS_TYPE":0,"CLASSIFICATION_TYPE":"U","NORAD_CAT_ID":54648,"ELEMENT_SET_NO":999,"REV_AT_EPOCH":16404,"BSTAR":-0.00042673,"MEAN_MOTION_DOT":-1.63e-06,"MEAN_MOTION_DDOT":0.0}]