ONEWEB-0522             
1 54140U 22138AD  26111.27988089  .00000053  00000+0  10022-3 0  9997
2 54140  87.9171 316.3010 0001952  86.1792 273.9564 13.19724788169308
ONEWEB-0523             
1 54141U 22138AE  26111.21287867  .00000003  00000+0 -23874-4 0  9994
2 54141  87.9139 285.8113 0001122 114.2437 245.8813 13.20769415171783
ONEWEB-0524             
1 54142U 22138AF  26111.20182365  .00000051  00000+0  92780-4 0  9995
2 54142  87.9138 285.8106 0001140  67.9068 292.2186 13.20774635171788
ONEWEB-0525             
1 54143U 22138AG  26111.29883385  .00000004  00000+0 -22237-4 0  9994
2 54143  87.9159 316.3075 0002063  83.1387 276.9980 13.19723212169327
ONEWEB-0526             
1 54144U 22138AH  26111.33201020 -.00000006  00000+0 -48283-4 0  9992
2 54144  87.9168 316.3001 0001811  84.4323 275.7016 13.19724430169309
ONEWEB-0529             
1 54145U 22138AJ  26111.25934719 -.00000027  00000+0 -99474-4 0  9993
2 54145  87.9161 316.3280 0001975  82.3559 277.7798 13.19724374169318
ONEWEB-0531             
1 54146U 22138AK  26111.41489324  .00000020  00000+0  16354-4 0  9996
2 54146  87.9129 285.7663 0000865 102.6648 257.4582 13.20772805171817
ONEWEB-0535             
1 54147U 22138AL  26111.29251544 -.00000003  00000+0 -39313-4 0  9997
2 54147  87.9169 316.3014 0001565  95.6139 264.5173 13.19723144169336
ONEWEB-0536             
1 54148U 22138AM  26111.40227027  .00000001  00000+0 -30437-4 0  9995
2 54148  87.9124 285.7981 0000772  93.4009 266.7212 13.20772792171809
ONEWEB-0527             
1 54642U 22166A   26111.39843935  .00000217  00000+0  49451-3 0  9998
2 54642  87.9206 255.3039 0001694  99.2578 260.8748 13.21824126164031
ONEWEB-0528             
1 54643U 22166B   26111.40430833  .00000048  00000+0  84618-4 0  9997
2 54643  87.9207 255.3067 0001977  92.7061 267.4299 13.21823964164047
ONEWEB-0539             
1 54644U 22166C   26111.36733060  .00000053  00000+0  96432-4 0  9994
2 54644  87.9213 255.2824 0002061 103.9541 256.1822 13.21826330164034
ONEWEB-0540             
1 54645U 22166D   26111.37419463  .00000032  00000+0  46481-4 0  9990
2 54645  87.9209 255.3152 0001892 102.1133 258.0213 13.21826531164021
ONEWEB-0542             
1 54646U 22166E   26111.37742096  .00000026  00000+0  30588-4 0  9996
2 54646  87.9217 255.2781 0002057 106.5209 253.6151 13.21826725164032
ONEWEB-0545             
1 54647U 22166F   26111.41777582  .00000088  00000+0  18167-3 0  9996
2 54647  87.9207 255.2863 0002128 112.4217 247.7143 13.21824147164005
ONEWEB-0580             
1 54648U 22166G   26111.39253536 -.00000163  00000+0 -42673-3 0  9997
2 54648  87.9210 255.2913 0001942 112.8767 247.2572 13.21824793164045
